0 compassg1 2021-01-08 0.032209058113946115 2021-01-01 2021-01-08
1 99999U          21008.00000000 +.00000000 +21276-1 +00000-0 4    00
2 99999 000.5383 310.8381 0007373 271.9193 029.3993 01.00259988    00
0 compassg1 2021-01-09 0.2706619772252952 2021-01-02 2021-01-09
1 99999U          21009.00000000 +.00000000 +20508-1 +00000-0 4    00
2 99999 000.5368 311.1303 0007474 272.6206 029.3698 01.00258047    00
0 compassg1 2021-01-10 0.08615169293397927 2021-01-03 2021-01-10
1 99999U          21010.00000000 +.00000000 +21870-1 +00000-0 4    00
2 99999 000.5347 311.4709 0007449 273.6001 029.0124 01.00256787    00
0 compassg1 2021-01-11 0.18349993727558628 2021-01-04 2021-01-11
1 99999U          21011.00000000 +.00000000 +18675-1 +00000-0 4    00
2 99999 000.5315 311.8200 0007350 274.3810 028.8459 01.00256674    00
0 compassg1 2021-01-12 0.23008578874720992 2021-01-05 2021-01-12
1 99999U          21012.00000000 +.00000000 +23014-1 +00000-0 4    00
2 99999 000.5275 312.1203 0007102 274.8372 029.0521 01.00257541    00
0 compassg1 2021-01-13 0.2573201911358842 2021-01-06 2021-01-13
1 99999U          21013.00000000 +.00000000 +13431-1 +00000-0 4    00
2 99999 000.5229 312.3362 0006935 274.3075 030.3273 01.00259014    00
0 compassg1 2021-01-14 0.24018292309547867 2021-01-07 2021-01-14
1 99999U          21014.00000000 +.00000000 +26314-1 +00000-0 4    00
2 99999 000.5181 312.4496 0006614 273.6179 031.8629 01.00260537    00
0 compassg1 2021-01-15 0.04746760577456573 2021-01-08 2021-01-15
1 99999U          21015.00000000 +.00000000 +49782-1 +00000-0 4    00
2 99999 000.5135 312.4704 0006274 273.0264 033.3916 01.00261763    00
0 compassg1 2021-01-16 0.15754173233624413 2021-01-09 2021-01-16
1 99999U          21016.00000000 +.00000000 +21636-2 +00000-0 4    00
2 99999 000.5095 312.4207 0006753 270.4912 036.9323 01.00262367    00
0 compassg1 2021-01-18 0.03396987687360048 2021-01-11 2021-01-18
1 99999U          21018.00000000 +.00000000 +38302-1 +00000-0 4    00
2 99999 000.5041 312.2643 0007418 266.8267 043.0502 01.00274450    00
0 compassg1 2021-01-19 0.21219489782932435 2021-01-12 2021-01-19
1 99999U          21019.00000000 +.00000000 +43278-1 +00000-0 4    00
2 99999 000.5024 312.2346 0007525 267.4389 043.4661 01.00273872    00
0 compassg1 2021-01-20 0.8053511556308076 2021-01-13 2021-01-20
1 99999U          21020.00000000 +.00000000 +31723-0 +00000-0 4    00
2 99999 000.5011 312.2689 0006444 269.9435 041.9416 01.00274724    00
0 compassg1 2021-01-21 2.4992949026867524 2021-01-14 2021-01-21
1 99999U          21021.00000000 +.00000000 +19983-0 +00000-0 4    00
2 99999 000.4999 312.3799 0006919 272.0990 040.7088 01.00275813    00
0 compassg1 2021-01-22 0.1422109008749439 2021-01-15 2021-01-22
1 99999U          21022.00000000 +.00000000 +94887-1 +00000-0 4    00
2 99999 000.4987 312.5458 0007248 270.9201 042.6617 01.00270052    00
0 compassg1 2021-01-23 0.1219366116426445 2021-01-16 2021-01-23
1 99999U          21023.00000000 +.00000000 +20465-1 +00000-0 4    00
2 99999 000.4973 312.7729 0007861 271.1867 043.1558 01.00268416    00
0 compassg1 2021-01-24 0.23256636042441606 2021-01-17 2021-01-24
1 99999U          21024.00000000 +.00000000 +20102-1 +00000-0 4    00
2 99999 000.4953 313.0408 0007841 272.1186 042.9497 01.00267336    00
0 compassg1 2021-01-25 0.020135673476881562 2021-01-18 2021-01-25
1 99999U          21025.00000000 +.00000000 +22214-1 +00000-0 4    00
2 99999 000.4927 313.3176 0007746 272.8984 042.8854 01.00266456    00
0 compassg1 2021-01-26 1.5905661689203134 2021-01-19 2021-01-26
1 99999U          21026.00000000 +.00000000 +20000-3 +00000-0 4    00
2 99999 000.4894 313.5772 0007765 273.6642 042.8575 01.00266551    00
0 compassg1 2021-01-27 4.086650248075618 2021-01-20 2021-01-27
1 99999U          21027.00000000 +.00000000 +20000-2 +00000-0 4    00
2 99999 000.4855 313.7825 0007706 274.3128 043.0085 01.00267444    00
0 compassg1 2021-01-28 1.6072132619201374 2021-01-21 2021-01-28
1 99999U          21028.00000000 +.00000000 +35242-2 +00000-0 4    00
2 99999 000.4812 313.9075 0007476 274.0732 044.1032 01.00266972    00
0 compassg1 2021-01-29 0.3287649680520617 2021-01-22 2021-01-29
1 99999U          21029.00000000 +.00000000 +23165-1 +00000-0 4    00
2 99999 000.4767 313.9148 0007043 273.4159 045.7327 01.00267348    00
0 compassg1 2021-01-30 0.33917621289555355 2021-01-23 2021-01-30
1 99999U          21030.00000000 +.00000000 +19461-1 +00000-0 4    00
2 99999 000.4726 313.8590 0006848 272.4566 047.7335 01.00268531    00
0 compassg1 2021-01-31 0.11724177205922226 2021-01-24 2021-01-31
1 99999U          21031.00000000 +.00000000 +20000-1 +00000-0 4    00
2 99999 000.4691 313.7305 0006650 270.7031 050.5982 01.00269672    00
0 compassg1 2021-02-01 0.5385395874438822 2021-01-25 2021-02-01
1 99999U          21032.00000000 +.00000000 +20000-0 +00000-0 4    00
2 99999 000.4666 313.5936 0005400 268.2331 054.2014 01.00271797    00
0 compassg1 2021-02-02 1.7404322263295318 2021-01-26 2021-02-02
1 99999U          21033.00000000 +.00000000 +19968-0 +00000-0 4    00
2 99999 000.4648 313.5076 0005166 267.1373 056.4040 01.00274344    00
0 compassg1 2021-02-03 2.314427792169647 2021-01-27 2021-02-03
1 99999U          21034.00000000 +.00000000 +19934-0 +00000-0 4    00
2 99999 000.4636 313.5188 0004951 265.3767 059.1621 01.00274705    00
0 compassg1 2021-02-04 2.352025459615194 2021-01-28 2021-02-04
1 99999U          21035.00000000 +.00000000 +19990-0 +00000-0 4    00
2 99999 000.4628 313.6536 0004752 263.7899 061.6087 01.00273390    00
0 compassg1 2021-02-07 0.027746626156781428 2021-01-31 2021-02-07
1 99999U          21038.00000000 +.00000000 +15209-1 +00000-0 4    00
2 99999 000.4578 314.5687 0006900 266.4109 060.8965 01.00262509    00
0 compassg1 2021-02-08 0.10451303120749199 2021-02-01 2021-02-08
1 99999U          21039.00000000 +.00000000 +80763-1 +00000-0 4    00
2 99999 000.4545 314.8806 0006648 267.1373 060.8373 01.00261530    00
0 compassg1 2021-02-09 0.16909622176036376 2021-02-02 2021-02-09
1 99999U          21040.00000000 +.00000000 +16505-1 +00000-0 4    00
2 99999 000.4507 315.1046 0006647 268.0893 060.6365 01.00260740    00
0 compassg1 2021-02-10 0.578349874830788 2021-02-03 2021-02-10
1 99999U          21041.00000000 +.00000000 +00000-0 +10000+4 4    00
2 99999 000.4465 315.2199 0006519 268.1503 061.4369 01.00261238    00
0 compassg1 2021-02-11 1.4637448333659189 2021-02-04 2021-02-11
1 99999U          21042.00000000 +.00000000 +44323-2 +00000-0 4    00
2 99999 000.4423 315.2255 0006384 267.4292 063.1309 01.00262584    00
0 compassg1 2021-02-12 1.8176999098033944 2021-02-05 2021-02-12
1 99999U          21043.00000000 +.00000000 +82272-4 +00000-0 4    00
2 99999 000.4386 315.1358 0006330 266.3066 065.3186 01.00263971    00
0 compassg1 2021-02-13 2.85745717211987 2021-02-06 2021-02-13
1 99999U          21044.00000000 +.00000000 +20000-2 +00000-0 4    00
2 99999 000.4355 314.9904 0006337 265.2792 067.4705 01.00265527    00
0 compassg1 2021-02-14 0.33880990627078833 2021-02-07 2021-02-14
1 99999U          21045.00000000 +.00000000 +19998-0 +00000-0 4    00
2 99999 000.4333 314.8361 0004455 255.6984 078.1725 01.00266361    00
0 compassg1 2021-02-15 0.06324596019991965 2021-02-08 2021-02-15
1 99999U          21046.00000000 +.00000000 +50000-1 +00000-0 4    00
2 99999 000.4317 314.7197 0005915 261.5593 073.3763 01.00265801    00
0 compassg1 2021-02-16 0.04792221552515622 2021-02-09 2021-02-16
1 99999U          21047.00000000 +.00000000 +11680-1 +00000-0 4    00
2 99999 000.4309 314.6660 0006344 262.7843 073.1659 01.00265458    00
0 compassg1 2021-02-17 0.3027093179737289 2021-02-10 2021-02-17
1 99999U          21048.00000000 +.00000000 +19030-0 +00000-0 4    00
2 99999 000.4302 314.6992 0006045 261.4304 075.4551 01.00265938    00
0 compassg1 2021-02-18 4.109030768880697 2021-02-11 2021-02-18
1 99999U          21049.00000000 +.00000000 +20000-0 +00000-0 4    00
2 99999 000.4296 314.8173 0005931 264.3272 073.4484 01.00269650    00
0 compassg1 2021-02-19 5.360734550074934 2021-02-12 2021-02-19
1 99999U          21050.00000000 +.00000000 +16405-1 +00000-0 4    00
2 99999 000.4288 315.0103 0007105 269.8459 068.7892 01.00273986    00
0 compassg1 2021-02-20 5.5865858610306285 2021-02-13 2021-02-20
1 99999U          21051.00000000 +.00000000 +62596-2 +00000-0 4    00
2 99999 000.4276 315.2640 0007214 271.2762 068.1109 01.00273003    00
0 compassg1 2021-02-21 5.713281619696822 2021-02-14 2021-02-21
1 99999U          21052.00000000 +.00000000 +47317-2 +00000-0 4    00
2 99999 000.4259 315.5440 0007250 272.2700 067.8413 01.00271724    00
0 compassg1 2021-02-22 4.557901633338601 2021-02-15 2021-02-22
1 99999U          21053.00000000 +.00000000 +26878-1 +00000-0 4    00
2 99999 000.4236 315.8178 0007029 271.3147 069.5152 01.00269865    00
0 compassg1 2021-02-23 2.808140705442273 2021-02-16 2021-02-23
1 99999U          21054.00000000 +.00000000 +60426-2 +00000-0 4    00
2 99999 000.4206 316.0529 0007214 271.3537 070.2457 01.00269109    00
0 compassg1 2021-02-24 3.892023778649419 2021-02-17 2021-02-24
1 99999U          21055.00000000 +.00000000 +29900-1 +00000-0 4    00
2 99999 000.4171 316.2154 0006932 271.3420 071.0997 01.00268585    00
0 compassg1 2021-02-25 5.149677912829544 2021-02-18 2021-02-25
1 99999U          21056.00000000 +.00000000 +91719-1 +00000-0 4    00
2 99999 000.4133 316.2669 0006136 269.5317 073.8636 01.00268513    00
0 compassg1 2021-02-26 0.056790779075033694 2021-02-19 2021-02-26
1 99999U          21057.00000000 +.00000000 +21636-2 +00000-0 4    00
2 99999 000.4097 316.2091 0006705 271.2612 073.1632 01.00267421    00
0 compassg1 2021-02-27 0.0497204518524661 2021-02-20 2021-02-27
1 99999U          21058.00000000 +.00000000 +22560-1 +00000-0 4    00
2 99999 000.4065 316.0518 0006304 269.4751 076.1004 01.00268314    00
